start=new Date('2021-12-17T00:00:00.000Z').valueOf();
sats=[{"EPHEMERIS_TYPE":"0","TLE_LINE1":"1 44238U 19029D   21350.92111347  .00008205  00000-0  40129-3 0  9995","FILE":"3242223","LAUNCH_DATE":"2019-05-24","PERIOD":"94.796","APOAPSIS":"510.701","RCS_SIZE":"LARGE","CENTER_NAME":"EARTH","TIME_SYSTEM":"UTC","ECCENTRICITY":"0.00029010","GP_ID":"191858554","EPOCH":"2021-12-16T22:06:24.203808","ARG_OF_PERICENTER":"102.7886","PERIAPSIS":"506.705","OBJECT_TYPE":"PAYLOAD","NORAD_CAT_ID":"44238","MEAN_ELEMENT_THEORY":"SGP4","MEAN_MOTION_DOT":"0.00008205","SEMIMAJOR_AXIS":"6886.838","RA_OF_ASC_NODE":"234.1983","BSTAR":"0.00040129000000","OBJECT_NAME":"STARLINK-24","MEAN_MOTION_DDOT":"0.0000000000000","MEAN_MOTION":"15.19053228","SITE":"AFETR","DECAY_DATE":null,"REV_AT_EPOCH":"14038","MEAN_ANOMALY":"257.3432","ELEMENT_SET_NO":"999","CLASSIFICATION_TYPE":"U","OBJECT_ID":"2019-029D","TLE_LINE2":"2 44238  52.9951 234.1983 0002901 102.7886 257.3432 15.19053228140386","REF_FRAME":"TEME","INCLINATION":"52.9951","COUNTRY_CODE":"US"},{"TIME_SYSTEM":"UTC","APOAPSIS":"492.210","RCS_SIZE":"LARGE","CENTER_NAME":"EARTH","FILE":"3242223","TLE_LINE1":"1 44249U 19029Q   21350.91051502  .00014320  00000-0  57536-3 0  9997","EPHEMERIS_TYPE":"0","LAUNCH_DATE":"2019-05-24","PERIOD":"94.414","ARG_OF_PERICENTER":"282.7896","EPOCH":"2021-12-16T21:51:08.497728","PERIAPSIS":"488.188","ECCENTRICITY":"0.00029280","GP_ID":"191858804","MEAN_MOTION_DDOT":"0.0000000000000","MEAN_MOTION":"15.25195838","SITE":"AFETR","DECAY_DATE":null,"BSTAR":"0.00057536000000","OBJECT_NAME":"STARLINK-61","SEMIMAJOR_AXIS":"6868.334","RA_OF_ASC_NODE":"201.4966","OBJECT_TYPE":"PAYLOAD","NORAD_CAT_ID":"44249","MEAN_MOTION_DOT":"0.00014320","MEAN_ELEMENT_THEORY":"SGP4","INCLINATION":"52.9802","COUNTRY_CODE":"US","OBJECT_ID":"2019-029Q","CLASSIFICATION_TYPE":"U","TLE_LINE2":"2 44249  52.9802 201.4966 0002928 282.7896  77.2773 15.25195838141536","REF_FRAME":"TEME","ELEMENT_SET_NO":"999","REV_AT_EPOCH":"14153","MEAN_ANOMALY":"77.2773"},{"ARG_OF_PERICENTER":"95.9095","EPOCH":"2021-12-16T21:39:54.313344","PERIAPSIS":"498.838","ECCENTRICITY":"0.00041050","GP_ID":"191859556","TIME_SYSTEM":"UTC","APOAPSIS":"504.486","RCS_SIZE":"LARGE","CENTER_NAME":"EARTH","EPHEMERIS_TYPE":"0","TLE_LINE1":"1 44252U 19029T   21350.90271196  .00012751  00000-0  57479-3 0  9995","FILE":"3242223","LAUNCH_DATE":"2019-05-24","PERIOD":"94.651","INCLINATION":"53.0040","COUNTRY_CODE":"US","OBJECT_ID":"2019-029T","CLASSIFICATION_TYPE":"U","TLE_LINE2":"2 44252  53.0040 233.3421 0004105  95.9095 264.2367 15.21385775141039","REF_FRAME":"TEME","ELEMENT_SET_NO":"999","REV_AT_EPOCH":"14103","MEAN_ANOMALY":"264.2367","MEAN_MOTION_DDOT":"0.0000000000000","MEAN_MOTION":"15.21385775","SITE":"AFETR","DECAY_DATE":null,"BSTAR":"0.00057479000000","OBJECT_NAME":"STARLINK-71","SEMIMAJOR_AXIS":"6879.797","RA_OF_ASC_NODE":"233.3421","OBJECT_TYPE":"PAYLOAD","NORAD_CAT_ID":"44252","MEAN_ELEMENT_THEORY":"SGP4","MEAN_MOTION_DOT":"0.00012751"},{"ECCENTRICITY":"0.00035540","GP_ID":"191859307","ARG_OF_PERICENTER":"334.8977","EPOCH":"2021-12-16T14:58:01.151616","PERIAPSIS":"364.819","LAUNCH_DATE":"2019-05-24","EPHEMERIS_TYPE":"0","TLE_LINE1":"1 44257U 19029Y   21350.62362444  .00191635  00000-0  17247-2 0  9993","FILE":"3242223","PERIOD":"91.890","TIME_SYSTEM":"UTC","CENTER_NAME":"EARTH","APOAPSIS":"369.614","RCS_SIZE":"LARGE","ELEMENT_SET_NO":"999","MEAN_ANOMALY":"25.1865","REV_AT_EPOCH":"14330","COUNTRY_CODE":"US","INCLINATION":"52.9920","CLASSIFICATION_TYPE":"U","OBJECT_ID":"2019-029Y","REF_FRAME":"TEME","TLE_LINE2":"2 44257  52.9920  82.3206 0003554 334.8977  25.1865 15.67096913143305","RA_OF_ASC_NODE":"82.3206","SEMIMAJOR_AXIS":"6745.352","OBJECT_TYPE":"PAYLOAD","MEAN_MOTION_DOT":"0.00191635","MEAN_ELEMENT_THEORY":"SGP4","NORAD_CAT_ID":"44257","MEAN_MOTION_DDOT":"0.0000000000000","DECAY_DATE":null,"MEAN_MOTION":"15.67096913","SITE":"AFETR","BSTAR":"0.00172470000000","OBJECT_NAME":"STARLINK-43"},{"NORAD_CAT_ID":"44282","MEAN_MOTION_DOT":"0.00036406","MEAN_ELEMENT_THEORY":"SGP4","OBJECT_TYPE":"PAYLOAD","SEMIMAJOR_AXIS":"6827.377","RA_OF_ASC_NODE":"143.1673","OBJECT_NAME":"STARLINK-80","BSTAR":"0.00093595000000","SITE":"AFETR","MEAN_MOTION":"15.38940945","DECAY_DATE":null,"MEAN_MOTION_DDOT":"0.0000000000000","REV_AT_EPOCH":"14181","MEAN_ANOMALY":"216.8992","ELEMENT_SET_NO":"999","REF_FRAME":"TEME","TLE_LINE2":"2 44282  53.0164 143.1673 0005143 143.2364 216.8992 15.38940945141812","OBJECT_ID":"2019-029AZ","CLASSIFICATION_TYPE":"U","INCLINATION":"53.0164","COUNTRY_CODE":"US","PERIOD":"93.571","EPHEMERIS_TYPE":"0","TLE_LINE1":"1 44282U 19029AZ  21350.67570554  .00036406  00000-0  93595-3 0  9994","FILE":"3242223","LAUNCH_DATE":"2019-05-24","APOAPSIS":"452.753","RCS_SIZE":"LARGE","CENTER_NAME":"EARTH","TIME_SYSTEM":"UTC","GP_ID":"191858055","ECCENTRICITY":"0.00051430","PERIAPSIS":"445.730","EPOCH":"2021-12-16T16:13:00.958656","ARG_OF_PERICENTER":"143.2364"},{"FILE":"3242223","TLE_LINE1":"1 44713U 19074A   21350.83358452 -.00000492  00000-0 -14093-4 0  9997","EPHEMERIS_TYPE":"0","LAUNCH_DATE":"2019-11-11","PERIOD":"95.592","APOAPSIS":"548.881","RCS_SIZE":"LARGE","CENTER_NAME":"EARTH","TIME_SYSTEM":"UTC","GP_ID":"191858844","ECCENTRICITY":"0.00024160","EPOCH":"2021-12-16T20:00:21.702528","ARG_OF_PERICENTER":"63.9416","PERIAPSIS":"545.535","OBJECT_TYPE":"PAYLOAD","NORAD_CAT_ID":"44713","MEAN_MOTION_DOT":"-0.00000492","MEAN_ELEMENT_THEORY":"SGP4","SEMIMAJOR_AXIS":"6925.343","RA_OF_ASC_NODE":"277.2768","BSTAR":"-0.00001409300000","OBJECT_NAME":"STARLINK-1007","MEAN_MOTION_DDOT":"0.0000000000000","MEAN_MOTION":"15.06401883","SITE":"AFETR","DECAY_DATE":null,"REV_AT_EPOCH":"11605","MEAN_ANOMALY":"296.1821","ELEMENT_SET_NO":"999","CLASSIFICATION_TYPE":"U","OBJECT_ID":"2019-074A","TLE_LINE2":"2 44713  53.0502 277.2768 0002416  63.9416 296.1821 15.06401883116055","REF_FRAME":"TEME","INCLINATION":"53.0502","COUNTRY_CODE":"US"},{"RA_OF_ASC_NODE":"276.7637","SEMIMAJOR_AXIS":"6925.346","OBJECT_TYPE":"PAYLOAD","MEAN_ELEMENT_THEORY":"SGP4","MEAN_MOTION_DOT":"0.00000057","NORAD_CAT_ID":"44714","MEAN_MOTION_DDOT":"0.0000000000000","DECAY_DATE":null,"MEAN_MOTION":"15.06400870","SITE":"AFETR","BSTAR":"0.00002276100000","OBJECT_NAME":"STARLINK-1008","ELEMENT_SET_NO":"999","MEAN_ANOMALY":"295.0695","REV_AT_EPOCH":"11624","COUNTRY_CODE":"US","INCLINATION":"53.0555","OBJECT_ID":"2019-074B","CLASSIFICATION_TYPE":"U","TLE_LINE2":"2 44714  53.0555 276.7637 0002201  65.0522 295.0695 15.06400870116249","REF_FRAME":"TEME","LAUNCH_DATE":"2019-11-11","FILE":"3242092","TLE_LINE1":"1 44714U 19074B   21350.94510152  .00000057  00000-0  22761-4 0  9993","EPHEMERIS_TYPE":"0","PERIOD":"95.592","TIME_SYSTEM":"UTC","CENTER_NAME":"EARTH","APOAPSIS":"548.735","RCS_SIZE":"LARGE","ECCENTRICITY":"0.00022010","GP_ID":"191836256","EPOCH":"2021-12-16T22:40:56.771328","ARG_OF_PERICENTER":"65.0522","PERIAPSIS":"545.687"},{"LAUNCH_DATE":"2019-11-11","TLE_LINE1":"1 44715U 19074C   21351.00039358  .00000005  00000-0  19276-4 0  9996","EPHEMERIS_TYPE":"0","FILE":"3242092","PERIOD":"95.592","TIME_SYSTEM":"UTC","CENTER_NAME":"EARTH","RCS_SIZE":"LARGE","APOAPSIS":"548.781","GP_ID":"191836007","ECCENTRICITY":"0.00022550","ARG_OF_PERICENTER":"68.4827","EPOCH":"2021-12-17T00:00:34.005312","PERIAPSIS":"545.658","RA_OF_ASC_NODE":"276.5110","SEMIMAJOR_AXIS":"6925.355","OBJECT_TYPE":"PAYLOAD","MEAN_MOTION_DOT":"0.00000005","MEAN_ELEMENT_THEORY":"SGP4","NORAD_CAT_ID":"44715","MEAN_MOTION_DDOT":"0.0000000000000","DECAY_DATE":null,"MEAN_MOTION":"15.06398026","SITE":"AFETR","BSTAR":"0.00001927600000","OBJECT_NAME":"STARLINK-1009","ELEMENT_SET_NO":"999","MEAN_ANOMALY":"291.6402","REV_AT_EPOCH":"11624","COUNTRY_CODE":"US","INCLINATION":"53.0550","OBJECT_ID":"2019-074C","CLASSIFICATION_TYPE":"U","TLE_LINE2":"2 44715  53.0550 276.5110 0002255  68.4827 291.6402 15.06398026116240","REF_FRAME":"TEME"},{"PERIAPSIS":"545.589","ARG_OF_PERICENTER":"69.9732","EPOCH":"2021-12-17T00:27:05.866560","ECCENTRICITY":"0.00023000","GP_ID":"191837900","TIME_SYSTEM":"UTC","CENTER_NAME":"EARTH","RCS_SIZE":"LARGE","APOAPSIS":"548.775","PERIOD":"95.591","LAUNCH_DATE":"2019-11-11","EPHEMERIS_TYPE":"0","TLE_LINE1":"1 44716U 19074D   21351.01881790  .00000714  00000-0  66813-4 0  9999","FILE":"3242164","COUNTRY_CODE":"US","INCLINATION":"53.0566","TLE_LINE2":"2 44716  53.0566 276.4289 0002300  69.9732 290.1505 15.06410400116234","REF_FRAME":"TEME","CLASSIFICATION_TYPE":"U","OBJECT_ID":"2019-074D","ELEMENT_SET_NO":"999","MEAN_ANOMALY":"290.1505","REV_AT_EPOCH":"11623","DECAY_DATE":null,"SITE":"AFETR","MEAN_MOTION":"15.06410400","MEAN_MOTION_DDOT":"0.0000000000000","OBJECT_NAME":"STARLINK-1010","BSTAR":"0.00006681300000","RA_OF_ASC_NODE":"276.4289","SEMIMAJOR_AXIS":"6925.317","MEAN_ELEMENT_THEORY":"SGP4","MEAN_MOTION_DOT":"0.00000714","NORAD_CAT_ID":"44716","OBJECT_TYPE":"PAYLOAD"},{"COUNTRY_CODE":"US","INCLINATION":"53.0550","CLASSIFICATION_TYPE":"U","OBJECT_ID":"2019-074E","REF_FRAME":"TEME","TLE_LINE2":"2 44717  53.0550 297.0232 0002156  62.2552 297.8656 15.06402266115781","ELEMENT_SET_NO":"999","MEAN_ANOMALY":"297.8656","REV_AT_EPOCH":"11578","MEAN_MOTION_DDOT":"0.0000000000000","DECAY_DATE":null,"SITE":"AFETR","MEAN_MOTION":"15.06402266","BSTAR":"0.00001795800000","OBJECT_NAME":"STARLINK-1011","RA_OF_ASC_NODE":"297.0232","SEMIMAJOR_AXIS":"6925.342","OBJECT_TYPE":"PAYLOAD","MEAN_ELEMENT_THEORY":"SGP4","MEAN_MOTION_DOT":"-0.00000014","NORAD_CAT_ID":"44717","ARG_OF_PERICENTER":"62.2552","EPOCH":"2021-12-16T21:13:22.368288","PERIAPSIS":"545.714","ECCENTRICITY":"0.00021560","GP_ID":"191858345","TIME_SYSTEM":"UTC","CENTER_NAME":"EARTH","APOAPSIS":"548.700","RCS_SIZE":"LARGE","LAUNCH_DATE":"2019-11-11","FILE":"3242223","TLE_LINE1":"1 44717U 19074E   21350.88428667 -.00000014  00000-0  17958-4 0  9994","EPHEMERIS_TYPE":"0","PERIOD":"95.592"}];
